STARLINK-4555           
1 53572U 22101AX  26068.38390874  .00000553  00000+0  52847-4 0  9994
2 53572  53.2175  55.1673 0001242  93.5569 266.5565 15.08833288196401
DISKSAT B               
1 67220U 25305B   26068.81497770  .00012481  00000+0  82401-3 0  9990
2 67220  45.0018 250.2098 0003783 311.4052  48.6498 15.07484556 12311
