[{"OBJECT_NAME":"STARLINK-4555","OBJECT_ID":"2022-101AX","EPOCH":"2026-03-09T09:12:49.715136","MEAN_MOTION":15.08833288,"ECCENTRICITY":0.00012425,"INCLINATION":53.2175,"RA_OF_ASC_NODE":55.1673,"ARG_OF_PERICENTER":93.5569,"MEAN_ANOMALY":266.5565,"EPHEMERIS_TYPE":0,"CLASSIFICATION_TYPE":"U","NORAD_CAT_ID":53572,"ELEMENT_SET_NO":999,"REV_AT_EPOCH":19640,"BSTAR":5.284738e-5,"MEAN_MOTION_DOT":5.53e-6,"MEAN_MOTION_DDOT":0},{"OBJECT_NAME":"DISKSAT B","OBJECT_ID":"2025-305B","EPOCH":"2026-03-09T19:33:34.074144","MEAN_MOTION":15.07484556,"ECCENTRICITY":0.00037827,"INCLINATION":45.0018,"RA_OF_ASC_NODE":250.2098,"ARG_OF_PERICENTER":311.4052,"MEAN_ANOMALY":48.6498,"EPHEMERIS_TYPE":0,"CLASSIFICATION_TYPE":"U","NORAD_CAT_ID":67220,"ELEMENT_SET_NO":999,"REV_AT_EPOCH":1231,"BSTAR":0.00082400752,"MEAN_MOTION_DOT":0.00012481,"MEAN_MOTION_DDOT":0}]
